ONEWEB-0275             
1 48993U 21060AC  25273.09183346 -.00000003  00000+0 -41085-4 0  9991
2 48993  87.8966 280.6060 0001729  90.3348 269.7981 13.16595074205333
ONEWEB-0276             
1 48994U 21060AD  25272.97307630 -.00000312  00000+0 -85016-3 0  9996
2 48994  87.8969 280.6273 0001894  96.6403 263.4943 13.16593862205339
ONEWEB-0277             
1 48995U 21060AE  25273.06139363 -.00000023  00000+0 -94144-4 0  9996
2 48995  87.8962 280.6413 0001615  90.6037 269.5279 13.16642220205339
ONEWEB-0278             
1 48996U 21060AF  25273.05225242 -.00000073  00000+0 -22421-3 0  9991
2 48996  87.8969 280.6081 0002063  93.3710 266.7657 13.16592369205465
ONEWEB-0279             
1 48997U 21060AG  25273.06016495 -.00000043  00000+0 -14663-3 0  9997
2 48997  87.8968 280.6020 0001517  92.4359 267.6946 13.16593785205396
ONEWEB-0280             
1 48998U 21060AH  25273.07522051  .00000013  00000+0 -43688-6 0  9997
2 48998  87.8964 280.6073 0001870 100.8710 259.2631 13.16594347205335
ONEWEB-0281             
1 48999U 21060AJ  25273.08076369  .00000036  00000+0  59687-4 0  9993
2 48999  87.8963 280.6029 0001832  87.5479 272.5862 13.16594780205400
ONEWEB-0282             
1 49000U 21060AK  25272.95882956  .00000047  00000+0  89170-4 0  9991
2 49000  87.8972 280.6371 0001738  97.3510 262.7819 13.16595660205360
